{
  "type": "FeatureCollection",
  "features": [
    {
      "type": "Feature",
      "properties": {
        "norad_id": 66608,
        "name": "STARLINK-36036",
        "group": "last-30-days",
        "lat": -40.49997533631168,
        "lon": 89.79579034349923,
        "alt_km": 417.44694591023017,
        "timestamp": "2025-12-10T21:43:20.862842+00:00",
        "meta_object_name": "STARLINK-36036",
        "meta_object_id": "2025-270W",
        "meta_epoch": "2025-12-10T14:00:03.000384",
        "meta_mean_motion": 15.50659627,
        "meta_eccentricity": 0.00015192,
        "meta_inclination": 42.9998,
        "meta_ra_of_asc_node": 205.2513,
        "meta_arg_of_pericenter": 238.8506,
        "meta_mean_anomaly": 15.2993,
        "meta_ephemeris_type": 0,
        "meta_classification_type": "U",
        "meta_norad_cat_id": 66608,
        "meta_element_set_no": 999,
        "meta_rev_at_epoch": 389,
        "meta_bstar": -0.003689486,
        "meta_mean_motion_dot": -0.0021165,
        "meta_mean_motion_ddot": 0,
        "tle_line1": "1 66608U 25270W   25344.58336806 -.00211650  00000+0 -36895-2 0  9998",
        "tle_line2": "2 66608  42.9998 205.2513 0001519 238.8506  15.2993 15.50659627  3890"
      },
      "geometry": {
        "type": "Point",
        "coordinates": [
          89.79579034349923,
          -40.49997533631168
        ]
      }
    },
    {
      "type": "Feature",
      "properties": {
        "norad_id": 66609,
        "name": "STARLINK-36034",
        "group": "last-30-days",
        "lat": -40.99991864902517,
        "lon": 92.25291277494867,
        "alt_km": 417.11826758087045,
        "timestamp": "2025-12-10T21:43:20.862852+00:00",
        "meta_object_name": "STARLINK-36034",
        "meta_object_id": "2025-270X",
        "meta_epoch": "2025-12-10T14:00:03.000384",
        "meta_mean_motion": 15.50664843,
        "meta_eccentricity": 0.0001858,
        "meta_inclination": 42.9995,
        "meta_ra_of_asc_node": 205.2476,
        "meta_arg_of_pericenter": 250.2099,
        "meta_mean_anomaly": 5.8525,
        "meta_ephemeris_type": 0,
        "meta_classification_type": "U",
        "meta_norad_cat_id": 66609,
        "meta_element_set_no": 999,
        "meta_rev_at_epoch": 389,
        "meta_bstar": -0.0029017411,
        "meta_mean_motion_dot": -0.00167503,
        "meta_mean_motion_ddot": 0,
        "tle_line1": "1 66609U 25270X   25344.58336806 -.00167503  00000+0 -29017-2 0  9994",
        "tle_line2": "2 66609  42.9995 205.2476 0001858 250.2099   5.8525 15.50664843  3899"
      },
      "geometry": {
        "type": "Point",
        "coordinates": [
          92.25291277494867,
          -40.99991864902517
        ]
      }
    },
    {
      "type": "Feature",
      "properties": {
        "norad_id": 66610,
        "name": "STARLINK-35680",
        "group": "last-30-days",
        "lat": -41.44340640580428,
        "lon": 94.72131395760485,
        "alt_km": 417.14754735280076,
        "timestamp": "2025-12-10T21:43:20.862862+00:00",
        "meta_object_name": "STARLINK-35680",
        "meta_object_id": "2025-270Y",
        "meta_epoch": "2025-12-10T14:00:03.000384",
        "meta_mean_motion": 15.50667156,
        "meta_eccentricity": 0.00018389,
        "meta_inclination": 42.9997,
        "meta_ra_of_asc_node": 205.2425,
        "meta_arg_of_pericenter": 254.1139,
        "meta_mean_anomaly": 3.863,
        "meta_ephemeris_type": 0,
        "meta_classification_type": "U",
        "meta_norad_cat_id": 66610,
        "meta_element_set_no": 999,
        "meta_rev_at_epoch": 416,
        "meta_bstar": -0.0029431847,
        "meta_mean_motion_dot": -0.00169853,
        "meta_mean_motion_ddot": 0,
        "tle_line1": "1 66610U 25270Y   25344.58336806 -.00169853  00000+0 -29432-2 0  9997",
        "tle_line2": "2 66610  42.9997 205.2425 0001838 254.1139   3.8630 15.50667156  4169"
      },
      "geometry": {
        "type": "Point",
        "coordinates": [
          94.72131395760485,
          -41.44340640580428
        ]
      }
    },
    {
      "type": "Feature",
      "properties": {
        "norad_id": 66611,
        "name": "STARLINK-35583",
        "group": "last-30-days",
        "lat": -41.83376521593396,
        "lon": 97.22648136218069,
        "alt_km": 417.15970281879527,
        "timestamp": "2025-12-10T21:43:20.862872+00:00",
        "meta_object_name": "STARLINK-35583",
        "meta_object_id": "2025-270Z",
        "meta_epoch": "2025-12-10T14:00:03.000384",
        "meta_mean_motion": 15.50661458,
        "meta_eccentricity": 0.00018566,
        "meta_inclination": 42.9998,
        "meta_ra_of_asc_node": 205.2377,
        "meta_arg_of_pericenter": 251.6419,
        "meta_mean_anomaly": 8.2564,
        "meta_ephemeris_type": 0,
        "meta_classification_type": "U",
        "meta_norad_cat_id": 66611,
        "meta_element_set_no": 999,
        "meta_rev_at_epoch": 416,
        "meta_bstar": -0.0028295954,
        "meta_mean_motion_dot": -0.00163411,
        "meta_mean_motion_ddot": 0,
        "tle_line1": "1 66611U 25270Z   25344.58336806 -.00163411  00000+0 -28296-2 0  9999",
        "tle_line2": "2 66611  42.9998 205.2377 0001856 251.6419   8.2564 15.50661458  4164"
      },
      "geometry": {
        "type": "Point",
        "coordinates": [
          97.22648136218069,
          -41.83376521593396
        ]
      }
    },
    {
      "type": "Feature",
      "properties": {
        "norad_id": 66612,
        "name": "STARLINK-36039",
        "group": "last-30-days",
        "lat": -42.16860128315815,
        "lon": 99.75875261631761,
        "alt_km": 417.1814755537516,
        "timestamp": "2025-12-10T21:43:20.862882+00:00",
        "meta_object_name": "STARLINK-36039",
        "meta_object_id": "2025-270AA",
        "meta_epoch": "2025-12-10T14:00:03.000384",
        "meta_mean_motion": 15.50665244,
        "meta_eccentricity": 0.00018657,
        "meta_inclination": 42.9997,
        "meta_ra_of_asc_node": 205.2318,
        "meta_arg_of_pericenter": 251.6652,
        "meta_mean_anomaly": 10.151,
        "meta_ephemeris_type": 0,
        "meta_classification_type": "U",
        "meta_norad_cat_id": 66612,
        "meta_element_set_no": 999,
        "meta_rev_at_epoch": 405,
        "meta_bstar": -0.0030300388,
        "meta_mean_motion_dot": -0.00174737,
        "meta_mean_motion_ddot": 0,
        "tle_line1": "1 66612U 25270AA  25344.58336806 -.00174737  00000+0 -30300-2 0  9992",
        "tle_line2": "2 66612  42.9997 205.2318 0001865 251.6652  10.1510 15.50665244  4056"
      },
      "geometry": {
        "type": "Point",
        "coordinates": [
          99.75875261631761,
          -42.16860128315815
        ]
      }
    },
    {
      "type": "Feature",
      "properties": {
        "norad_id": 66613,
        "name": "STARLINK-36037",
        "group": "last-30-days",
        "lat": -42.447546674527075,
        "lon": 102.32202111388754,
        "alt_km": 417.2074726231158,
        "timestamp": "2025-12-10T21:43:20.862892+00:00",
        "meta_object_name": "STARLINK-36037",
        "meta_object_id": "2025-270AB",
        "meta_epoch": "2025-12-10T14:00:03.000384",
        "meta_mean_motion": 15.50685792,
        "meta_eccentricity": 0.00018711,
        "meta_inclination": 42.9998,
        "meta_ra_of_asc_node": 205.2279,
        "meta_arg_of_pericenter": 252.0482,
        "meta_mean_anomaly": 11.6808,
        "meta_ephemeris_type": 0,
        "meta_classification_type": "U",
        "meta_norad_cat_id": 66613,
        "meta_element_set_no": 999,
        "meta_rev_at_epoch": 405,
        "meta_bstar": -0.00372894,
        "meta_mean_motion_dot": -0.00214055,
        "meta_mean_motion_ddot": 0,
        "tle_line1": "1 66613U 25270AB  25344.58336806 -.00214055  00000+0 -37289-2 0  9994",
        "tle_line2": "2 66613  42.9998 205.2279 0001871 252.0482  11.6808 15.50685792  4053"
      },
      "geometry": {
        "type": "Point",
        "coordinates": [
          102.32202111388754,
          -42.447546674527075
        ]
      }
    },
    {
      "type": "Feature",
      "properties": {
        "norad_id": 66614,
        "name": "STARLINK-36040",
        "group": "last-30-days",
        "lat": -42.82998812133132,
        "lon": 107.48340011847549,
        "alt_km": 417.3226095213395,
        "timestamp": "2025-12-10T21:43:20.862905+00:00",
        "meta_object_name": "STARLINK-36040",
        "meta_object_id": "2025-270AC",
        "meta_epoch": "2025-12-10T14:00:03.000384",
        "meta_mean_motion": 15.50668551,
        "meta_eccentricity": 0.0001732,
        "meta_inclination": 42.9997,
        "meta_ra_of_asc_node": 205.2175,
        "meta_arg_of_pericenter": 252.6595,
        "meta_mean_anomaly": 14.9065,
        "meta_ephemeris_type": 0,
        "meta_classification_type": "U",
        "meta_norad_cat_id": 66614,
        "meta_element_set_no": 999,
        "meta_rev_at_epoch": 389,
        "meta_bstar": -0.0032129084,
        "meta_mean_motion_dot": -0.00185039,
        "meta_mean_motion_ddot": 0,
        "tle_line1": "1 66614U 25270AC  25344.58336806 -.00185039  00000+0 -32129-2 0  9992",
        "tle_line2": "2 66614  42.9997 205.2175 0001732 252.6595  14.9065 15.50668551  3891"
      },
      "geometry": {
        "type": "Point",
        "coordinates": [
          107.48340011847549,
          -42.82998812133132
        ]
      }
    }
  ]
}